[{"OBJECT_NAME":"STARLINK-35269","OBJECT_ID":"2025-207B","EPOCH":"2026-03-09T18:20:29.294880","MEAN_MOTION":15.05645312,"ECCENTRICITY":7.35e-5,"INCLINATION":97.6016,"RA_OF_ASC_NODE":138.7535,"ARG_OF_PERICENTER":91.3559,"MEAN_ANOMALY":268.7752,"EPHEMERIS_TYPE":0,"CLASSIFICATION_TYPE":"U","NORAD_CAT_ID":65593,"ELEMENT_SET_NO":999,"REV_AT_EPOCH":2826,"BSTAR":0.00011360993,"MEAN_MOTION_DOT":1.579e-5,"MEAN_MOTION_DDOT":0},{"OBJECT_NAME":"STUDSAT","OBJECT_ID":"2010-035B","EPOCH":"2026-03-09T18:37:00.077376","MEAN_MOTION":15.04045903,"ECCENTRICITY":0.00117838,"INCLINATION":98.1026,"RA_OF_ASC_NODE":330.9975,"ARG_OF_PERICENTER":15.8359,"MEAN_ANOMALY":344.3232,"EPHEMERIS_TYPE":0,"CLASSIFICATION_TYPE":"U","NORAD_CAT_ID":36796,"ELEMENT_SET_NO":999,"REV_AT_EPOCH":85020,"BSTAR":0.00039642444,"MEAN_MOTION_DOT":5.425e-5,"MEAN_MOTION_DDOT":0}]
